ORBCOMM FM06            
1 25118U 97084G   26158.57014668  .00001535  00000+0  45249-3 0  9994
2 25118  45.0135  99.0078 0001942 302.3039 227.2870 14.47539442492990
ORBCOMM FM04            
1 25159U 98007C   26158.70973576  .00001109  00000+0  42498-3 0  9992
2 25159 107.9626 149.9137 0041030 341.1013  18.8603 14.35724641475234
ORBCOMM FM19            
1 25415U 98046C   26158.63385464  .00001050  00000+0  37919-3 0  9992
2 25415  44.9943 288.9711 0004249 243.4564 130.6337 14.39481576455404
ORBCOMM FM20            
1 25416U 98046D   26158.07864949  .00000707  00000+0  27803-3 0  9990
2 25416  44.9949 299.4212 0001612 215.8377 144.2363 14.38052845455334
ORBCOMM FM27            
1 25481U 98053G   26158.33004398  .00001086  00000+0  39334-3 0  9996
2 25481  45.0065  22.1708 0000206  70.4841 289.6030 14.39123385448816
ORBCOMM FM32            
1 25982U 99065C   26157.44591547  .00000624  00000+0  25555-3 0  9991
2 25982  45.0145 224.0828 0005217 341.0890  18.9763 14.37118027385546
ORBCOMM FM109           
1 40086U 14040A   26158.64699273  .00000759  00000+0  19679-3 0  9990
2 40086  47.0017 136.5918 0001614 218.1461 141.9311 14.58835678632957
ORBCOMM FM114           
1 41179U 15081A   26158.39034560  .00000579  00000+0  15870-3 0  9993
2 41179  47.0058  48.3219 0001912 164.9943 195.1000 14.58847401556323
ORBCOMM FM110           
1 41182U 15081D   26158.37887222  .00000842  00000+0  21433-3 0  9991
2 41182  47.0029  47.8183 0002922  20.9160 339.1845 14.58864970556195
ORBCOMM FM118           
1 41183U 15081E   26156.97489096  .00003194  00000+0  71149-3 0  9995
2 41183  47.0105  54.7867 0003166 344.4390  15.6398 14.58872006556094
ORBCOMM FM112           
1 41184U 15081F   26158.69180096  .00000819  00000+0  20932-3 0  9990
2 41184  47.0001 315.1475 0003124 175.6095 184.4819 14.58890878557562
ORBCOMM FM113           
1 41185U 15081G   26158.73662389  .00000624  00000+0  16815-3 0  9995
2 41185  47.0018 315.3072 0001716 186.1419 173.9446 14.58849261557556
ORBCOMM FM108           
1 41187U 15081J   26156.50751746  .00000700  00000+0  18440-3 0  9997
2 41187  47.0046 237.4186 0002310 171.2053 188.8874 14.58857926558377
ORBCOMM FM117           
1 41188U 15081K   26158.45912388  .00000625  00000+0  16854-3 0  9998
2 41188  47.0005 226.8283 0002951 182.2940 177.7932 14.58857481558706
ORBCOMM FM116           
1 41189U 15081L   26158.71361228  .00000857  00000+0  21737-3 0  9992
2 41189  47.0035 315.4145 0001122   3.5235 356.5659 14.58869594557556
